<?xml version="1.0" encoding="UTF-8"?>
<ndm xmlns:xsi="http://www.w3.org/2001/XMLSchema-instance" xsi:noNamespaceSchemaLocation="https://sanaregistry.org/r/ndmxml_unqualified/ndmxml-2.0.0-master-2.0.xsd">
<omm id="CCSDS_OMM_VERS" version="2.0">
<header><CREATION_DATE/><ORIGINATOR/></header><body><segment><metadata><OBJECT_NAME>ORBCOMM FM115 [+]</OBJECT_NAME><OBJECT_ID>2015-081H</OBJECT_ID><CENTER_NAME>EARTH</CENTER_NAME><REF_FRAME>TEME</REF_FRAME><TIME_SYSTEM>UTC</TIME_SYSTEM><MEAN_ELEMENT_THEORY>SGP4</MEAN_ELEMENT_THEORY></metadata><data><meanElements><EPOCH>2024-03-20T06:18:16.618176</EPOCH><MEAN_MOTION>14.60462776</MEAN_MOTION><ECCENTRICITY>.0000376</ECCENTRICITY><INCLINATION>47.0004</INCLINATION><RA_OF_ASC_NODE>35.0368</RA_OF_ASC_NODE><ARG_OF_PERICENTER>228.2574</ARG_OF_PERICENTER><MEAN_ANOMALY>131.8280</MEAN_ANOMALY></meanElements><tleParameters><EPHEMERIS_TYPE>0</EPHEMERIS_TYPE><CLASSIFICATION_TYPE>U</CLASSIFICATION_TYPE><NORAD_CAT_ID>41186</NORAD_CAT_ID><ELEMENT_SET_NO>999</ELEMENT_SET_NO><REV_AT_EPOCH>44137</REV_AT_EPOCH><BSTAR>.35623E-3</BSTAR><MEAN_MOTION_DOT>.1571E-4</MEAN_MOTION_DOT><MEAN_MOTION_DDOT>0</MEAN_MOTION_DDOT></tleParameters></data></segment></body></omm>
<omm id="CCSDS_OMM_VERS" version="2.0">
<header><CREATION_DATE/><ORIGINATOR/></header><body><segment><metadata><OBJECT_NAME>ORBCOMM FM108 [+]</OBJECT_NAME><OBJECT_ID>2015-081J</OBJECT_ID><CENTER_NAME>EARTH</CENTER_NAME><REF_FRAME>TEME</REF_FRAME><TIME_SYSTEM>UTC</TIME_SYSTEM><MEAN_ELEMENT_THEORY>SGP4</MEAN_ELEMENT_THEORY></metadata><data><meanElements><EPOCH>2024-03-20T00:40:20.857152</EPOCH><MEAN_MOTION>14.56366427</MEAN_MOTION><ECCENTRICITY>.0002521</ECCENTRICITY><INCLINATION>47.0044</INCLINATION><RA_OF_ASC_NODE>88.8323</RA_OF_ASC_NODE><ARG_OF_PERICENTER>1.8524</ARG_OF_PERICENTER><MEAN_ANOMALY>358.2370</MEAN_ANOMALY></meanElements><tleParameters><EPHEMERIS_TYPE>0</EPHEMERIS_TYPE><CLASSIFICATION_TYPE>U</CLASSIFICATION_TYPE><NORAD_CAT_ID>41187</NORAD_CAT_ID><ELEMENT_SET_NO>999</ELEMENT_SET_NO><REV_AT_EPOCH>44055</REV_AT_EPOCH><BSTAR>.29518E-3</BSTAR><MEAN_MOTION_DOT>.1154E-4</MEAN_MOTION_DOT><MEAN_MOTION_DDOT>0</MEAN_MOTION_DDOT></tleParameters></data></segment></body></omm>
<omm id="CCSDS_OMM_VERS" version="2.0">
<header><CREATION_DATE/><ORIGINATOR/></header><body><segment><metadata><OBJECT_NAME>ORBCOMM FM117 [+]</OBJECT_NAME><OBJECT_ID>2015-081K</OBJECT_ID><CENTER_NAME>EARTH</CENTER_NAME><REF_FRAME>TEME</REF_FRAME><TIME_SYSTEM>UTC</TIME_SYSTEM><MEAN_ELEMENT_THEORY>SGP4</MEAN_ELEMENT_THEORY></metadata><data><meanElements><EPOCH>2024-03-20T09:43:58.103904</EPOCH><MEAN_MOTION>14.56372153</MEAN_MOTION><ECCENTRICITY>.0002698</ECCENTRICITY><INCLINATION>47.0006</INCLINATION><RA_OF_ASC_NODE>85.9659</RA_OF_ASC_NODE><ARG_OF_PERICENTER>18.9428</ARG_OF_PERICENTER><MEAN_ANOMALY>341.1556</MEAN_ANOMALY></meanElements><tleParameters><EPHEMERIS_TYPE>0</EPHEMERIS_TYPE><CLASSIFICATION_TYPE>U</CLASSIFICATION_TYPE><NORAD_CAT_ID>41188</NORAD_CAT_ID><ELEMENT_SET_NO>999</ELEMENT_SET_NO><REV_AT_EPOCH>44065</REV_AT_EPOCH><BSTAR>.31687E-3</BSTAR><MEAN_MOTION_DOT>.1251E-4</MEAN_MOTION_DOT><MEAN_MOTION_DDOT>0</MEAN_MOTION_DDOT></tleParameters></data></segment></body></omm>
<omm id="CCSDS_OMM_VERS" version="2.0">
<header><CREATION_DATE/><ORIGINATOR/></header><body><segment><metadata><OBJECT_NAME>ORBCOMM FM116 [+]</OBJECT_NAME><OBJECT_ID>2015-081L</OBJECT_ID><CENTER_NAME>EARTH</CENTER_NAME><REF_FRAME>TEME</REF_FRAME><TIME_SYSTEM>UTC</TIME_SYSTEM><MEAN_ELEMENT_THEORY>SGP4</MEAN_ELEMENT_THEORY></metadata><data><meanElements><EPOCH>2024-03-20T22:39:09.542016</EPOCH><MEAN_MOTION>14.56394669</MEAN_MOTION><ECCENTRICITY>.0001762</ECCENTRICITY><INCLINATION>47.0015</INCLINATION><RA_OF_ASC_NODE>173.2501</RA_OF_ASC_NODE><ARG_OF_PERICENTER>172.3629</ARG_OF_PERICENTER><MEAN_ANOMALY>187.7283</MEAN_ANOMALY></meanElements><tleParameters><EPHEMERIS_TYPE>0</EPHEMERIS_TYPE><CLASSIFICATION_TYPE>U</CLASSIFICATION_TYPE><NORAD_CAT_ID>41189</NORAD_CAT_ID><ELEMENT_SET_NO>999</ELEMENT_SET_NO><REV_AT_EPOCH>43954</REV_AT_EPOCH><BSTAR>.47529E-3</BSTAR><MEAN_MOTION_DOT>.1962E-4</MEAN_MOTION_DOT><MEAN_MOTION_DDOT>0</MEAN_MOTION_DDOT></tleParameters></data></segment></body></omm>
</ndm>
