ORBCOMM FM115 [+]       
1 41186U 15081H   24080.26269234  .00001571  00000+0  35623-3 0  9998
2 41186  47.0004  35.0368 0000376 228.2574 131.8280 14.60462776441373
ORBCOMM FM108 [+]       
1 41187U 15081J   24080.02801918  .00001154  00000+0  29518-3 0  9997
2 41187  47.0044  88.8323 0002521   1.8524 358.2370 14.56366427440554
ORBCOMM FM117 [+]       
1 41188U 15081K   24080.40553361  .00001251  00000+0  31687-3 0  9994
2 41188  47.0006  85.9659 0002698  18.9428 341.1556 14.56372153440651
ORBCOMM FM116 [+]       
1 41189U 15081L   24080.94386044  .00001962  00000+0  47529-3 0  9997
2 41189  47.0015 173.2501 0001762 172.3629 187.7283 14.56394669439541
